[{"OBJECT_NAME":"TIANMU-1 19","OBJECT_ID":"2023-208A","EPOCH":"2026-03-09T22:13:36.801696","MEAN_MOTION":15.2984143,"ECCENTRICITY":0.00039292,"INCLINATION":97.4383,"RA_OF_ASC_NODE":184.9132,"ARG_OF_PERICENTER":316.2611,"MEAN_ANOMALY":43.8317,"EPHEMERIS_TYPE":0,"CLASSIFICATION_TYPE":"U","NORAD_CAT_ID":58660,"ELEMENT_SET_NO":999,"REV_AT_EPOCH":12214,"BSTAR":0.00040995676,"MEAN_MOTION_DOT":0.00011779,"MEAN_MOTION_DDOT":0},{"OBJECT_NAME":"STARLINK-31818","OBJECT_ID":"2024-090M","EPOCH":"2026-03-09T08:04:56.864928","MEAN_MOTION":15.27574138,"ECCENTRICITY":0.0001345,"INCLINATION":43.002,"RA_OF_ASC_NODE":185.7023,"ARG_OF_PERICENTER":272.2238,"MEAN_ANOMALY":87.846,"EPHEMERIS_TYPE":0,"CLASSIFICATION_TYPE":"U","NORAD_CAT_ID":59741,"ELEMENT_SET_NO":999,"REV_AT_EPOCH":10338,"BSTAR":5.486458e-6,"MEAN_MOTION_DOT":-1.11e-6,"MEAN_MOTION_DDOT":0}]
